NANOZOND 1 (RS49S)      
1 57190U 23091AA  26068.04609972  .00257461  00000+0  17344-2 0  9991
2 57190  97.5065 148.2398 0000999 320.8834  39.2358 15.74384803150173
STARLINK-36798          
1 67798U 26032B   26068.80435661  .00137219  00000+0  90536-3 0  9993
2 67798  97.2852 255.3316 0001400  72.0426 288.0991 15.75209809  4808
