[{"OBJECT_NAME":"NANOZOND 1 (RS49S)","OBJECT_ID":"2023-091AA","EPOCH":"2026-03-09T01:06:23.015808","MEAN_MOTION":15.74384803,"ECCENTRICITY":9.992e-5,"INCLINATION":97.5065,"RA_OF_ASC_NODE":148.2398,"ARG_OF_PERICENTER":320.8834,"MEAN_ANOMALY":39.2358,"EPHEMERIS_TYPE":0,"CLASSIFICATION_TYPE":"U","NORAD_CAT_ID":57190,"ELEMENT_SET_NO":999,"REV_AT_EPOCH":15017,"BSTAR":0.0017343613,"MEAN_MOTION_DOT":0.00257461,"MEAN_MOTION_DDOT":0},{"OBJECT_NAME":"STARLINK-36798","OBJECT_ID":"2026-032B","EPOCH":"2026-03-09T19:18:16.411104","MEAN_MOTION":15.75209809,"ECCENTRICITY":0.00013999,"INCLINATION":97.2852,"RA_OF_ASC_NODE":255.3316,"ARG_OF_PERICENTER":72.0426,"MEAN_ANOMALY":288.0991,"EPHEMERIS_TYPE":0,"CLASSIFICATION_TYPE":"U","NORAD_CAT_ID":67798,"ELEMENT_SET_NO":999,"REV_AT_EPOCH":480,"BSTAR":0.00090535972,"MEAN_MOTION_DOT":0.00137219,"MEAN_MOTION_DDOT":0}]
